COSMOS 2426 (717)       
1 29671U 06062B   19156.92312427  .00000005  00000-0  10000-3 0  9990
2 29671  65.1294 280.6732 0018489 162.7267  59.7320  2.13103021 96850
COSMOS 2433 (720)       
1 32275U 07052A   19156.89478588 -.00000040  00000-0  10000-3 0  9991
2 32275  65.8463  41.5163 0001948 288.1827 249.0425  2.13104447 90361
COSMOS 2432 (719)       
1 32276U 07052B   19156.53352800 -.00000039  00000-0  10000-3 0  9999
2 32276  65.8563  41.6118 0011442 339.3071 231.9051  2.13103933 90357
COSMOS 2434 (721)       
1 32393U 07065A   19156.88806240  .00000005  00000-0  00000-0 0  9991
2 32393  64.7284 279.3764 0004873 107.2591 312.2639  2.13103044 89076
COSMOS 2436 (723)       
1 32395U 07065C   19156.70999962  .00000005  00000-0  10000-3 0  9992
2 32395  64.7374 279.4368 0015420   4.0070 331.1339  2.13104383 88999
COSMOS 2456 (730)       
1 36111U 09070A   19156.73621370  .00000085  00000-0  00000-0 0  9992
2 36111  64.2002 159.0167 0006592 302.7341 173.3275  2.13102976 73738
COSMOS 2457 (733)       
1 36112U 09070B   19156.79253507  .00000085  00000-0  00000-0 0  9992
2 36112  64.1827 158.9172 0005210 197.0305  87.3754  2.13101605 73732
COSMOS 2459 (731)       
1 36400U 10007A   19156.79222527 -.00000040  00000-0  10000-3 0  9998
2 36400  65.7531  40.5370 0027417 352.9657 321.6541  2.13102288 72085
COSMOS 2461 (735)       
1 36401U 10007B   19156.92905718 -.00000041  00000-0  10000-3 0  9995
2 36401  65.7451  40.5049 0008169  58.0919 272.0309  2.13102250 72088
COSMOS 2460 (732)       
1 36402U 10007C   19156.86474455 -.00000041  00000-0  10000-3 0  9998
2 36402  65.7366  40.4706 0001668  21.3690 299.3220  2.13101538 72081
COSMOS 2464 (736)       
1 37139U 10041C   19156.14372887  .00000003  00000-0  00000-0 0  9994
2 37139  64.3286 279.0308 0024724  14.4311  60.4305  2.13100696 68141
COSMOS 2474 (742)       
1 37829U 11055A   19156.53558263  .00000087  00000-0  00000-0 0  9995
2 37829  64.5217 159.8895 0011098 253.4960 285.1475  2.13101936 59720
COSMOS 2476 (744)       
1 37867U 11064A   19156.88521509  .00000086  00000-0  00000-0 0  9997
2 37867  64.5026 159.9313 0021062 244.4773 248.5314  2.13101966 59087
COSMOS 2477 (745)       
1 37868U 11064B   19156.56307797  .00000086  00000-0  00000-0 0  9994
2 37868  64.5112 159.9940 0018741 246.0723 178.4936  2.13101822 59030
COSMOS 2475 (743)       
1 37869U 11064C   19156.69955054  .00000086  00000-0  00000-0 0  9994
2 37869  64.5171 159.9869 0023259 266.2317 220.0865  2.13102056 59045
COSMOS 2485 (747)       
1 39155U 13019A   19156.58627282  .00000087  00000-0  00000-0 0  9994
2 39155  64.6712 160.1277 0021352 239.9874  68.4102  2.13101976 47541
COSMOS 2492 (754)       
1 39620U 14012A   19156.75508472 -.00000040  00000-0  10000-3 0  9997
2 39620  65.6239  40.3105 0014732 332.6778 140.3033  2.13103419 40506
COSMOS 2500 (755)       
1 40001U 14032A   19156.56836038 -.00000040  00000-0  00000-0 0  9991
2 40001  65.5665  40.2593 0004500 202.7488 348.4468  2.13102953 38715
COSMOS 2501 (702K)      
1 40315U 14075A   19156.62334647  .00000003  00000-0  00000-0 0  9990
2 40315  64.0487 280.0988 0015981 204.1173 187.3343  2.13098682 35120
COSMOS 2514 (751)       
1 41330U 16008A   19155.92369465 -.00000039  00000-0  00000-0 0  9994
2 41330  65.3695  40.2474 0007922 218.7998  19.4818  2.13103228 25866
COSMOS 2516 (753)       
1 41554U 16032A   19156.64314319  .00000004  00000-0  00000-0 0  9998
2 41554  64.2724 280.0619 0011937 212.0079 108.8074  2.13101717 23482
COSMOS 2522 (752)       
1 42939U 17055A   19156.48426096  .00000004  00000-0  00000-0 0  9990
2 42939  64.5027 280.1360 0006600 238.5180 186.8995  2.13101857 13246
COSMOS 2527 (756)       
1 43508U 18053A   19156.78577208  .00000086  00000-0  00000-0 0  9997
2 43508  64.8355 159.8895 0009316 245.1864  82.7211  2.13102693  7530
COSMOS 2529 (757)       
1 43687U 18086A   19156.55388118  .00000004  00000-0  00000-0 0  9996
2 43687  64.7159 280.1526 0008660 269.2250 165.3126  2.13102016  4556
COSMOS 2534 (758)       
1 44299U 19030A   19156.65295594  .00000005  00000-0  00000-0 0  9993
2 44299  64.7884 279.9343 0006703  49.9690 245.6657  2.12569769   199
